[Satellite]
VERSION=1.1
NAME=GOES 18
NICKNAME=GOES 18
TLE1=1 51850U 22021A   22342.52818059  .00000112  00000+0  00000+0 0  9999
TLE2=2 51850   0.0080  87.2420 0001766 167.2476 235.9906  1.00272074  2880
STATUS=0
